[{"OBJECT_NAME":"A-SEANSAT-PG1","OBJECT_ID":"2023-091AH","EPOCH":"2026-03-09T22:32:06.495648","MEAN_MOTION":15.33422293,"ECCENTRICITY":0.00088895,"INCLINATION":97.5184,"RA_OF_ASC_NODE":136.6191,"ARG_OF_PERICENTER":78.3219,"MEAN_ANOMALY":281.902,"EPHEMERIS_TYPE":0,"CLASSIFICATION_TYPE":"U","NORAD_CAT_ID":57197,"ELEMENT_SET_NO":999,"REV_AT_EPOCH":14948,"BSTAR":0.0007038551,"MEAN_MOTION_DOT":0.00022724,"MEAN_MOTION_DDOT":0},{"OBJECT_NAME":"STARLINK-33658","OBJECT_ID":"2025-063X","EPOCH":"2026-03-09T06:33:10.020096","MEAN_MOTION":15.30200911,"ECCENTRICITY":0.00012116,"INCLINATION":53.1612,"RA_OF_ASC_NODE":54.5364,"ARG_OF_PERICENTER":102.643,"MEAN_ANOMALY":257.4706,"EPHEMERIS_TYPE":0,"CLASSIFICATION_TYPE":"U","NORAD_CAT_ID":63384,"ELEMENT_SET_NO":999,"REV_AT_EPOCH":5469,"BSTAR":0.00053366897,"MEAN_MOTION_DOT":0.0001548,"MEAN_MOTION_DDOT":0}]
